OBJECT_NAME,OBJECT_ID,EPOCH,MEAN_MOTION,ECCENTRICITY,INCLINATION,RA_OF_ASC_NODE,ARG_OF_PERICENTER,MEAN_ANOMALY,EPHEMERIS_TYPE,CLASSIFICATION_TYPE,NORAD_CAT_ID,ELEMENT_SET_NO,REV_AT_EPOCH,BSTAR,MEAN_MOTION_DOT,MEAN_MOTION_DDOT
SKYSAT-C1,2016-040C,2026-06-06T15:56:12.399360,15.36120752,.00042161,96.9565,189.9555,78.4382,281.7336,0,U,41601,999,55625,.300151E-3,.10493E-3,0
LAPAN-A3,2016-040E,2026-06-06T22:38:49.969824,15.33039513,.00118946,97.1490,154.4267,58.7082,301.5324,0,U,41603,999,55324,.11734168E-3,.3677E-4,0
GAOFEN-3,2016-049A,2026-06-06T22:54:53.022240,14.42214210,.00011799,98.4014,165.8954,98.0134,262.1189,0,U,41727,999,51717,.29297342E-4,.53E-6,0
SKYSAT-C4,2016-058B,2026-06-06T20:42:42.908832,15.48263568,.00008832,96.9182,180.0695,86.7965,273.3388,0,U,41771,999,54387,.36710116E-3,.19295E-3,0
SKYSAT-C5,2016-058C,2026-06-06T08:14:36.225312,15.34314115,.00023413,97.0475,198.4688,11.6429,348.4869,0,U,41772,999,54208,.30222151E-3,.9969E-4,0
SKYSAT-C2,2016-058D,2026-06-06T19:28:09.312960,15.41831952,.00052282,97.0172,180.2986,92.7811,267.4036,0,U,41773,999,54345,.33047303E-3,.13941E-3,0
SKYSAT-C3,2016-058E,2026-06-06T19:54:16.734240,15.52094114,.00020173,96.9015,189.0787,81.0888,279.0595,0,U,41774,999,54450,.41227435E-3,.24837E-3,0
ALSAT-1B,2016-059C,2026-06-06T21:50:00.253824,14.72265894,.00077106,97.7754,167.1171,259.3229,100.7111,0,U,41785,999,51906,.32546956E-4,.158E-5,0
PATHFINDER 1,2016-059E,2026-06-06T13:39:28.359936,14.67651263,.00271223,97.8166,157.3246,238.6845,121.1704,0,U,41787,999,51815,.12687062E-3,.678E-5,0
SCATSAT 1,2016-059H,2026-06-06T22:24:06.017472,14.79504470,.00532728,98.1195,221.5937,281.3951,78.1278,0,U,41790,999,10007,.15625617E-3,.1138E-4,0
GOKTURK 1A,2016-073A,2026-06-06T22:00:03.770784,14.62767265,.00014498,98.1258,52.7517,77.6912,282.4452,0,U,41875,999,50732,.86997213E-4,.397E-5,0
RESOURCESAT-2A,2016-074A,2026-06-06T22:27:29.747808,14.21612670,.00033382,98.7522,231.5237,102.6104,257.5447,0,U,41877,999,49284,.421318E-6,-.43E-6,0
CARTOSAT-2D,2017-008A,2026-06-05T15:10:45.234336,15.19236200,.00037278,97.4122,216.1531,285.1069,74.9753,0,U,41948,999,51582,-.99469042E-4,-.216E-4,0
SENTINEL-2B,2017-013A,2026-06-06T22:15:58.262688,14.30814013,.00012283,98.5687,232.8469,86.2240,273.9084,0,U,42063,999,48317,.53262269E-4,.96E-6,0
CARTOSAT-2E,2017-036C,2026-06-06T21:38:07.064160,15.19242224,.00032555,97.4276,217.8734,3.0379,357.0874,0,U,42767,999,49658,.25270576E-3,.5258E-4,0
FORMOSAT-5,2017-049A,2026-06-06T21:57:59.990688,14.50895043,.00126385,98.2253,233.4531,112.6692,247.5840,0,U,42920,999,46518,.58061235E-4,.186E-5,0
SENTINEL-5P,2017-064A,2026-06-06T13:24:13.419360,14.19517174,.0000975,98.7922,99.7656,81.2482,278.8805,0,U,42969,999,44805,.50983E-4,.63E-6,0
SKYSAT-C11,2017-068A,2026-06-06T03:15:43.761024,15.57313292,.0001127,97.4346,305.4915,86.8611,273.2773,0,U,42987,999,48152,.51972E-3,.37958E-3,0
SKYSAT-C10,2017-068B,2026-06-05T21:08:33.596160,15.34442038,.0001298,97.4497,293.6207,89.3365,270.8026,0,U,42988,999,48062,.38541E-3,.12783E-3,0
SKYSAT-C9,2017-068C,2026-06-06T15:46:48.145152,15.41300187,.00088405,97.4416,295.2397,166.9794,193.1683,0,U,42989,999,48113,.40930193E-3,.16997E-3,0
SKYSAT-C8,2017-068D,2026-06-06T15:37:04.011168,15.36768703,.0001602,97.4513,294.1579,97.8802,262.2624,0,U,42990,999,48069,.38552E-3,.13777E-3,0
SKYSAT-C7,2017-068E,2026-06-06T15:27:21.917952,15.36715247,.0006904,97.4524,295.1398,137.5981,222.5798,0,U,42991,999,48075,.37973E-3,.13554E-3,0
SKYSAT-C6,2017-068F,2026-06-06T18:37:11.309376,15.34029627,.00038009,97.4559,295.2812,166.0917,194.0431,0,U,42992,999,48072,.33801202E-3,.11055E-3,0
CARTOSAT-2F,2018-004A,2026-06-06T22:24:01.025280,15.19294957,.00001471,97.4788,217.6678,44.3390,315.7857,0,U,43111,999,46577,.24146441E-3,.5028E-4,0
GAOFEN-1 02,2018-031A,2026-06-06T22:18:37.764000,14.76466625,.00044163,98.0525,220.4849,56.4703,303.6928,0,U,43259,999,44118,.11247269E-3,.731E-5,0
GAOFEN-1 03,2018-031B,2026-06-06T23:24:46.324224,14.76454506,.00038262,98.0526,220.3902,99.3491,260.8151,0,U,43260,999,44118,.1198885E-3,.783E-5,0
GAOFEN-1 04,2018-031D,2026-06-06T22:49:49.755648,14.76466024,.00022252,98.0526,220.5555,92.3151,267.8313,0,U,43262,999,44117,.1742344E-3,.1161E-4,0
SENTINEL-3B,2018-039A,2026-06-06T22:49:04.204704,14.26738808,.00008941,98.6250,225.6295,77.0075,283.1205,0,U,43437,999,42266,.62742231E-4,.108E-5,0
GAOFEN-5 01,2018-043A,2026-06-06T15:34:26.938560,14.60598310,.00029858,98.4564,129.0142,102.4390,257.7143,0,U,43461,999,43015,.94065203E-4,.408E-5,0
GAOFEN-6,2018-048A,2026-06-06T23:22:56.833824,14.76620357,.00112209,97.7758,221.0328,202.0518,158.0211,0,U,43484,999,43188,.78682128E-4,.501E-5,0
