SKYSAT-C1               
1 41601U 16040C   26157.66403240  .00010493  00000+0  30015-3 0  9997
2 41601  96.9565 189.9555 0004216  78.4382 281.7336 15.36120752556256
LAPAN-A3                
1 41603U 16040E   26157.94363391  .00003677  00000+0  11734-3 0  9995
2 41603  97.1490 154.4267 0011894  58.7082 301.5324 15.33039513553248
GAOFEN-3                
1 41727U 16049A   26157.95478035  .00000053  00000+0  29297-4 0  9993
2 41727  98.4014 165.8954 0001179  98.0134 262.1189 14.42214210517171
SKYSAT-C4               
1 41771U 16058B   26157.86299663  .00019295  00000+0  36710-3 0  9995
2 41771  96.9182 180.0695 0000883  86.7965 273.3388 15.48263568543875
SKYSAT-C5               
1 41772U 16058C   26157.34347483  .00009969  00000+0  30222-3 0  9992
2 41772  97.0475 198.4688 0002341  11.6429 348.4869 15.34314115542081
SKYSAT-C2               
1 41773U 16058D   26157.81121890  .00013941  00000+0  33047-3 0  9990
2 41773  97.0172 180.2986 0005228  92.7811 267.4036 15.41831952543457
SKYSAT-C3               
1 41774U 16058E   26157.82936035  .00024837  00000+0  41227-3 0  9992
2 41774  96.9015 189.0787 0002017  81.0888 279.0595 15.52094114544505
ALSAT-1B                
1 41785U 16059C   26157.90972516  .00000158  00000+0  32547-4 0  9994
2 41785  97.7754 167.1171 0007710 259.3229 100.7111 14.72265894519067
PATHFINDER 1            
1 41787U 16059E   26157.56907824  .00000678  00000+0  12687-3 0  9997
2 41787  97.8166 157.3246 0027122 238.6845 121.1704 14.67651263518151
SCATSAT 1               
1 41790U 16059H   26157.93340298  .00001138  00000+0  15626-3 0  9996
2 41790  98.1195 221.5937 0053272 281.3951  78.1278 14.79504470100075
GOKTURK 1A              
1 41875U 16073A   26157.91671031  .00000397  00000+0  86997-4 0  9992
2 41875  98.1258  52.7517 0001449  77.6912 282.4452 14.62767265507327
RESOURCESAT-2A          
1 41877U 16074A   26157.93576097 -.00000043  00000+0  42132-6 0  9997
2 41877  98.7522 231.5237 0003338 102.6104 257.5447 14.21612670492847
CARTOSAT-2D             
1 41948U 17008A   26156.63246799 -.00002160  00000+0 -99469-4 0  9999
2 41948  97.4122 216.1531 0003727 285.1069  74.9753 15.19236200515827
SENTINEL-2B             
1 42063U 17013A   26157.92775767  .00000096  00000+0  53262-4 0  9994
2 42063  98.5687 232.8469 0001228  86.2240 273.9084 14.30814013483170
CARTOSAT-2E             
1 42767U 17036C   26157.90147065  .00005258  00000+0  25271-3 0  9995
2 42767  97.4276 217.8734 0003255   3.0379 357.0874 15.19242224496580
FORMOSAT-5              
1 42920U 17049A   26157.91527767  .00000186  00000+0  58061-4 0  9991
2 42920  98.2253 233.4531 0012638 112.6692 247.5840 14.50895043465189
SENTINEL-5P             
1 42969U 17064A   26157.55848865  .00000063  00000+0  50983-4 0  9995
2 42969  98.7922  99.7656 0000975  81.2482 278.8805 14.19517174448056
SKYSAT-C11              
1 42987U 17068A   26157.13592316  .00037958  00000+0  51972-3 0  9991
2 42987  97.4346 305.4915 0001127  86.8611 273.2773 15.57313292481522
SKYSAT-C10              
1 42988U 17068B   26156.88094440  .00012783  00000+0  38541-3 0  9994
2 42988  97.4497 293.6207 0001298  89.3365 270.8026 15.34442038480625
SKYSAT-C9               
1 42989U 17068C   26157.65750168  .00016997  00000+0  40930-3 0  9993
2 42989  97.4416 295.2397 0008840 166.9794 193.1683 15.41300187481132
SKYSAT-C8               
1 42990U 17068D   26157.65074087  .00013777  00000+0  38552-3 0  9994
2 42990  97.4513 294.1579 0001602  97.8802 262.2624 15.36768703480692
SKYSAT-C7               
1 42991U 17068E   26157.64400368  .00013554  00000+0  37973-3 0  9998
2 42991  97.4524 295.1398 0006904 137.5981 222.5798 15.36715247480758
SKYSAT-C6               
1 42992U 17068F   26157.77582534  .00011055  00000+0  33801-3 0  9999
2 42992  97.4559 295.2812 0003800 166.0917 194.0431 15.34029627480729
CARTOSAT-2F             
1 43111U 18004A   26157.93334520  .00005028  00000+0  24146-3 0  9997
2 43111  97.4788 217.6678 0000147  44.3390 315.7857 15.19294957465774
GAOFEN-1 02             
1 43259U 18031A   26157.92960375  .00000731  00000+0  11247-3 0  9996
2 43259  98.0525 220.4849 0004416  56.4703 303.6928 14.76466625441189
GAOFEN-1 03             
1 43260U 18031B   26157.97553616  .00000783  00000+0  11989-3 0  9999
2 43260  98.0526 220.3902 0003826  99.3491 260.8151 14.76454506441182
GAOFEN-1 04             
1 43262U 18031D   26157.95127032  .00001161  00000+0  17423-3 0  9998
2 43262  98.0526 220.5555 0002225  92.3151 267.8313 14.76466024441172
SENTINEL-3B             
1 43437U 18039A   26157.95074311  .00000108  00000+0  62742-4 0  9996
2 43437  98.6250 225.6295 0000894  77.0075 283.1205 14.26738808422669
GAOFEN-5 01             
1 43461U 18043A   26157.64892290  .00000408  00000+0  94065-4 0  9994
2 43461  98.4564 129.0142 0002985 102.4390 257.7143 14.60598310430157
GAOFEN-6                
1 43484U 18048A   26157.97426891  .00000501  00000+0  78682-4 0  9991
2 43484  97.7758 221.0328 0011220 202.0518 158.0211 14.76620357431883
